{
  "type": "Feature",
  "properties": {
    "name": "Yangon–Pyay Railway",
    "name_my": "ရန်ကုန်–ပြည် မီးရထားလမ်း",
    "route_code": "YANGON-PYAY",
    "source": "OpenStreetMap",
    "attribution": "© OpenStreetMap contributors",
    "length_km": 262.27,
    "coordinate_count": 1159
  },
  "geometry": {
    "type": "LineString",
    "coordinates": [
      [
        96.1618433,
        16.7809988
      ],
      [
        96.1601359,
        16.7810994
      ],
      [
        96.1600283,
        16.7810942
      ],
      [
        96.159302,
        16.7810975
      ],
      [
        96.1589658,
        16.7811191
      ],
      [
        96.1586319,
        16.7811406
      ],
      [
        96.1584065,
        16.7811498
      ],
      [
        96.1576958,
        16.7811768
      ],
      [
        96.1572063,
        16.7811768
      ],
      [
        96.1569488,
        16.7811857
      ],
      [
        96.1563683,
        16.7812943
      ],
      [
        96.156115,
        16.7812991
      ],
      [
        96.1541293,
        16.7813581
      ],
      [
        96.1486111,
        16.7815222
      ],
      [
        96.1485576,
        16.7815238
      ],
      [
        96.1478602,
        16.7815445
      ],
      [
        96.1474839,
        16.7815599
      ],
      [
        96.1471563,
        16.7816539
      ],
      [
        96.1468267,
        16.78176
      ],
      [
        96.1465569,
        16.7818896
      ],
      [
        96.1462738,
        16.7820815
      ],
      [
        96.145859,
        16.7824089
      ],
      [
        96.1445144,
        16.7834881
      ],
      [
        96.1439659,
        16.7838877
      ],
      [
        96.143586,
        16.7841193
      ],
      [
        96.143153,
        16.7843266
      ],
      [
        96.1428116,
        16.7844499
      ],
      [
        96.1402404,
        16.785103
      ],
      [
        96.1381099,
        16.7856032
      ],
      [
        96.1376361,
        16.7857144
      ],
      [
        96.1353741,
        16.7862452
      ],
      [
        96.1351027,
        16.7863235
      ],
      [
        96.1348347,
        16.7864052
      ],
      [
        96.1344709,
        16.7865456
      ],
      [
        96.1342515,
        16.7866621
      ],
      [
        96.1337872,
        16.7869493
      ],
      [
        96.1333618,
        16.7873074
      ],
      [
        96.1329882,
        16.7876916
      ],
      [
        96.1325082,
        16.788245
      ],
      [
        96.1317867,
        16.7892198
      ],
      [
        96.1314775,
        16.7897316
      ],
      [
        96.1310037,
        16.7906653
      ],
      [
        96.1307046,
        16.7912764
      ],
      [
        96.1306998,
        16.7912862
      ],
      [
        96.1304067,
        16.7918853
      ],
      [
        96.1289047,
        16.7951278
      ],
      [
        96.1278135,
        16.7974432
      ],
      [
        96.1278023,
        16.7974669
      ],
      [
        96.1272784,
        16.7984541
      ],
      [
        96.126656,
        16.7998456
      ],
      [
        96.1265101,
        16.8001414
      ],
      [
        96.12637,
        16.8004705
      ],
      [
        96.1262784,
        16.8008234
      ],
      [
        96.1262442,
        16.8010395
      ],
      [
        96.1262316,
        16.8012531
      ],
      [
        96.126244,
        16.8037197
      ],
      [
        96.1262665,
        16.8039237
      ],
      [
        96.1263189,
        16.8040992
      ],
      [
        96.1265737,
        16.8049463
      ],
      [
        96.1266127,
        16.8052332
      ],
      [
        96.1266233,
        16.8053292
      ],
      [
        96.1266211,
        16.805693
      ],
      [
        96.1266185,
        16.8061671
      ],
      [
        96.1266093,
        16.8078722
      ],
      [
        96.1266047,
        16.8085891
      ],
      [
        96.1265884,
        16.8088102
      ],
      [
        96.1265427,
        16.809015
      ],
      [
        96.1265001,
        16.8091751
      ],
      [
        96.1264534,
        16.8093409
      ],
      [
        96.12635,
        16.809703
      ],
      [
        96.1262958,
        16.8099277
      ],
      [
        96.1262369,
        16.8102678
      ],
      [
        96.1262278,
        16.810727
      ],
      [
        96.1262294,
        16.8111371
      ],
      [
        96.1262444,
        16.8167043
      ],
      [
        96.1262157,
        16.819185
      ],
      [
        96.1261772,
        16.8198982
      ],
      [
        96.1261041,
        16.8204281
      ],
      [
        96.1260262,
        16.820721
      ],
      [
        96.1247869,
        16.8247079
      ],
      [
        96.1239389,
        16.8274798
      ],
      [
        96.123195,
        16.8299112
      ],
      [
        96.1231862,
        16.82994
      ],
      [
        96.1224244,
        16.8323854
      ],
      [
        96.1223939,
        16.832485
      ],
      [
        96.1220146,
        16.8337627
      ],
      [
        96.1215176,
        16.8353953
      ],
      [
        96.1211004,
        16.8369797
      ],
      [
        96.1201712,
        16.84029
      ],
      [
        96.1191201,
        16.8442766
      ],
      [
        96.1181525,
        16.8479385
      ],
      [
        96.118134,
        16.8480071
      ],
      [
        96.117805,
        16.8492866
      ],
      [
        96.1163427,
        16.8547144
      ],
      [
        96.1161953,
        16.8552884
      ],
      [
        96.1158182,
        16.8567253
      ],
      [
        96.1151405,
        16.8592911
      ],
      [
        96.1151188,
        16.859378
      ],
      [
        96.1146267,
        16.8612737
      ],
      [
        96.1143058,
        16.8624626
      ],
      [
        96.1142361,
        16.8626589
      ],
      [
        96.1132977,
        16.8662196
      ],
      [
        96.1130724,
        16.8670792
      ],
      [
        96.1127862,
        16.8681826
      ],
      [
        96.1125306,
        16.8690661
      ],
      [
        96.1124528,
        16.8693789
      ],
      [
        96.1124321,
        16.8694619
      ],
      [
        96.1118901,
        16.8715445
      ],
      [
        96.1113643,
        16.873469
      ],
      [
        96.1112617,
        16.8737527
      ],
      [
        96.1110188,
        16.8744401
      ],
      [
        96.1110089,
        16.874467
      ],
      [
        96.1108022,
        16.875017
      ],
      [
        96.1099566,
        16.8771117
      ],
      [
        96.109042,
        16.8793716
      ],
      [
        96.1086608,
        16.880357
      ],
      [
        96.1082723,
        16.8815121
      ],
      [
        96.1081408,
        16.8817225
      ],
      [
        96.1080538,
        16.8819449
      ],
      [
        96.1079692,
        16.8821413
      ],
      [
        96.1079125,
        16.882274
      ],
      [
        96.1078101,
        16.8825084
      ],
      [
        96.1075399,
        16.8831602
      ],
      [
        96.107364,
        16.8836014
      ],
      [
        96.1067147,
        16.8852091
      ],
      [
        96.1064418,
        16.8858839
      ],
      [
        96.1058266,
        16.8873921
      ],
      [
        96.1056942,
        16.8876887
      ],
      [
        96.1055044,
        16.8880544
      ],
      [
        96.1054283,
        16.888316
      ],
      [
        96.1051024,
        16.8890565
      ],
      [
        96.1050836,
        16.8891014
      ],
      [
        96.1041595,
        16.8913196
      ],
      [
        96.1040225,
        16.8915857
      ],
      [
        96.1038779,
        16.8918432
      ],
      [
        96.1034836,
        16.8924412
      ],
      [
        96.1033119,
        16.8926503
      ],
      [
        96.1032764,
        16.8926888
      ],
      [
        96.1024241,
        16.8937366
      ],
      [
        96.100957,
        16.8955017
      ],
      [
        96.099015,
        16.8978807
      ],
      [
        96.0985705,
        16.8984257
      ],
      [
        96.0959761,
        16.9016674
      ],
      [
        96.0959113,
        16.9017558
      ],
      [
        96.0957015,
        16.9019685
      ],
      [
        96.0956572,
        16.9020185
      ],
      [
        96.0954977,
        16.9022229
      ],
      [
        96.0951241,
        16.9026627
      ],
      [
        96.0948251,
        16.9030681
      ],
      [
        96.0944026,
        16.9036879
      ],
      [
        96.0940083,
        16.9043603
      ],
      [
        96.0936905,
        16.9049993
      ],
      [
        96.0934182,
        16.9056396
      ],
      [
        96.093137,
        16.906437
      ],
      [
        96.0928992,
        16.9073359
      ],
      [
        96.0928291,
        16.9077389
      ],
      [
        96.0927146,
        16.9083964
      ],
      [
        96.0926566,
        16.9089552
      ],
      [
        96.0926311,
        16.909625
      ],
      [
        96.0926378,
        16.9100215
      ],
      [
        96.0926392,
        16.9100651
      ],
      [
        96.0929107,
        16.9150578
      ],
      [
        96.093129,
        16.9189667
      ],
      [
        96.0935726,
        16.9269104
      ],
      [
        96.093645,
        16.9280752
      ],
      [
        96.0936468,
        16.9281111
      ],
      [
        96.0936658,
        16.9284858
      ],
      [
        96.0936554,
        16.9290246
      ],
      [
        96.0936662,
        16.9292323
      ],
      [
        96.0936989,
        16.9298583
      ],
      [
        96.0937506,
        16.9308488
      ],
      [
        96.0938088,
        16.9319604
      ],
      [
        96.0938544,
        16.9328323
      ],
      [
        96.0938088,
        16.9319604
      ],
      [
        96.0937506,
        16.9308488
      ],
      [
        96.0936989,
        16.9298583
      ],
      [
        96.0936662,
        16.9292323
      ],
      [
        96.0936661,
        16.9296917
      ],
      [
        96.0936447,
        16.9300895
      ],
      [
        96.0936353,
        16.9304859
      ],
      [
        96.0936547,
        16.930852
      ],
      [
        96.0937785,
        16.9328391
      ],
      [
        96.0938371,
        16.9337408
      ],
      [
        96.0938742,
        16.9349339
      ],
      [
        96.093929,
        16.9360206
      ],
      [
        96.093987,
        16.9368857
      ],
      [
        96.0939523,
        16.9377278
      ],
      [
        96.09385,
        16.9384654
      ],
      [
        96.0938389,
        16.9385358
      ],
      [
        96.0936981,
        16.9393466
      ],
      [
        96.09317,
        16.9411439
      ],
      [
        96.0916006,
        16.9464818
      ],
      [
        96.091128,
        16.9480712
      ],
      [
        96.0909787,
        16.9485733
      ],
      [
        96.0908122,
        16.9491595
      ],
      [
        96.0907961,
        16.9492154
      ],
      [
        96.0893744,
        16.9539973
      ],
      [
        96.0893337,
        16.9541318
      ],
      [
        96.0881772,
        16.958046
      ],
      [
        96.0877162,
        16.9595908
      ],
      [
        96.0869571,
        16.9620886
      ],
      [
        96.0847781,
        16.9695266
      ],
      [
        96.0845212,
        16.9703944
      ],
      [
        96.0844956,
        16.9704807
      ],
      [
        96.08408,
        16.9718847
      ],
      [
        96.0809613,
        16.9824264
      ],
      [
        96.0772533,
        16.9950665
      ],
      [
        96.0767766,
        16.9967162
      ],
      [
        96.076603,
        16.9971749
      ],
      [
        96.0765731,
        16.9972722
      ],
      [
        96.0761087,
        16.9988367
      ],
      [
        96.0755198,
        17.0009299
      ],
      [
        96.075304,
        17.0016753
      ],
      [
        96.0750221,
        17.0028247
      ],
      [
        96.074988,
        17.0029637
      ],
      [
        96.0749252,
        17.0031804
      ],
      [
        96.0743449,
        17.0053557
      ],
      [
        96.0743212,
        17.00545
      ],
      [
        96.0741027,
        17.0063743
      ],
      [
        96.0733964,
        17.0090215
      ],
      [
        96.0733885,
        17.009051
      ],
      [
        96.0721487,
        17.0136974
      ],
      [
        96.0721406,
        17.0137275
      ],
      [
        96.0711026,
        17.0176177
      ],
      [
        96.0710786,
        17.0177143
      ],
      [
        96.0705163,
        17.0198246
      ],
      [
        96.0704821,
        17.019953
      ],
      [
        96.0689618,
        17.0255775
      ],
      [
        96.0689481,
        17.0256286
      ],
      [
        96.0682511,
        17.0282443
      ],
      [
        96.0665889,
        17.0344813
      ],
      [
        96.0650246,
        17.0402804
      ],
      [
        96.0650152,
        17.040316
      ],
      [
        96.0641955,
        17.0434202
      ],
      [
        96.0641759,
        17.0434982
      ],
      [
        96.0635403,
        17.0458369
      ],
      [
        96.0635234,
        17.0459011
      ],
      [
        96.0631304,
        17.0474045
      ],
      [
        96.062117,
        17.0511126
      ],
      [
        96.0615251,
        17.0533124
      ],
      [
        96.0609862,
        17.0553469
      ],
      [
        96.0609746,
        17.0553918
      ],
      [
        96.060075,
        17.0587517
      ],
      [
        96.0600588,
        17.0588142
      ],
      [
        96.0596934,
        17.0602503
      ],
      [
        96.0581084,
        17.0660892
      ],
      [
        96.0567922,
        17.0709569
      ],
      [
        96.0567741,
        17.0710237
      ],
      [
        96.0563266,
        17.0726786
      ],
      [
        96.0556578,
        17.075152
      ],
      [
        96.0556485,
        17.0751866
      ],
      [
        96.0533717,
        17.0837235
      ],
      [
        96.0533608,
        17.0837623
      ],
      [
        96.0531454,
        17.0845971
      ],
      [
        96.0531189,
        17.0847032
      ],
      [
        96.0528646,
        17.0856571
      ],
      [
        96.0525396,
        17.0868302
      ],
      [
        96.051047,
        17.0923785
      ],
      [
        96.0510225,
        17.0924707
      ],
      [
        96.0504047,
        17.0947875
      ],
      [
        96.0503833,
        17.0948676
      ],
      [
        96.0497443,
        17.097279
      ],
      [
        96.0494003,
        17.0985723
      ],
      [
        96.0488037,
        17.100815
      ],
      [
        96.0483731,
        17.1024363
      ],
      [
        96.0481515,
        17.1032645
      ],
      [
        96.0481441,
        17.1032922
      ],
      [
        96.0479597,
        17.1039526
      ],
      [
        96.0478861,
        17.1042256
      ],
      [
        96.0470381,
        17.1073721
      ],
      [
        96.0467117,
        17.1085831
      ],
      [
        96.0466908,
        17.1086685
      ],
      [
        96.0456686,
        17.1124279
      ],
      [
        96.0438231,
        17.1193163
      ],
      [
        96.0438095,
        17.1193683
      ],
      [
        96.0432798,
        17.1215792
      ],
      [
        96.0431577,
        17.1224174
      ],
      [
        96.043143,
        17.1229723
      ],
      [
        96.0431872,
        17.1237259
      ],
      [
        96.0432704,
        17.1243193
      ],
      [
        96.0434166,
        17.1249743
      ],
      [
        96.0436124,
        17.1256382
      ],
      [
        96.0442249,
        17.1272372
      ],
      [
        96.0443304,
        17.1275127
      ],
      [
        96.0443614,
        17.1276035
      ],
      [
        96.0490063,
        17.1396088
      ],
      [
        96.0493281,
        17.1405213
      ],
      [
        96.04942,
        17.1408474
      ],
      [
        96.0494971,
        17.141121
      ],
      [
        96.0495776,
        17.1416875
      ],
      [
        96.0496366,
        17.1423462
      ],
      [
        96.0496393,
        17.1430177
      ],
      [
        96.0495601,
        17.1437277
      ],
      [
        96.0495582,
        17.1437546
      ],
      [
        96.0494533,
        17.1448245
      ],
      [
        96.0486716,
        17.15306
      ],
      [
        96.0486567,
        17.1532278
      ],
      [
        96.0485882,
        17.153963
      ],
      [
        96.0483188,
        17.1568527
      ],
      [
        96.0482981,
        17.1574061
      ],
      [
        96.0482996,
        17.1580985
      ],
      [
        96.0485476,
        17.1598691
      ],
      [
        96.0494484,
        17.1656417
      ],
      [
        96.0496574,
        17.1672333
      ],
      [
        96.0497851,
        17.1684739
      ],
      [
        96.0498352,
        17.1688961
      ],
      [
        96.0498621,
        17.1691969
      ],
      [
        96.0498828,
        17.1694641
      ],
      [
        96.0499543,
        17.1703885
      ],
      [
        96.0500312,
        17.1730009
      ],
      [
        96.0500709,
        17.1746078
      ],
      [
        96.0501083,
        17.1758595
      ],
      [
        96.0501148,
        17.1764368
      ],
      [
        96.0502133,
        17.1788772
      ],
      [
        96.0503033,
        17.1811939
      ],
      [
        96.0502267,
        17.1838553
      ],
      [
        96.0497414,
        17.187573
      ],
      [
        96.0493133,
        17.1889044
      ],
      [
        96.0491319,
        17.1896131
      ],
      [
        96.0487673,
        17.1910215
      ],
      [
        96.0482505,
        17.192442
      ],
      [
        96.0474912,
        17.1943007
      ],
      [
        96.0462662,
        17.196684
      ],
      [
        96.0455032,
        17.1979584
      ],
      [
        96.0432486,
        17.201338
      ],
      [
        96.0421689,
        17.2031512
      ],
      [
        96.0393282,
        17.2077237
      ],
      [
        96.0364283,
        17.2123487
      ],
      [
        96.0342032,
        17.2158284
      ],
      [
        96.0337876,
        17.2164892
      ],
      [
        96.0330091,
        17.2177704
      ],
      [
        96.0322499,
        17.2190053
      ],
      [
        96.0316924,
        17.2197152
      ],
      [
        96.0312485,
        17.2201966
      ],
      [
        96.0295772,
        17.2216163
      ],
      [
        96.0278597,
        17.2230622
      ],
      [
        96.0254887,
        17.2249165
      ],
      [
        96.0247984,
        17.2255965
      ],
      [
        96.024299,
        17.2261868
      ],
      [
        96.0238181,
        17.2268572
      ],
      [
        96.0228222,
        17.2283195
      ],
      [
        96.0216862,
        17.2299925
      ],
      [
        96.021201,
        17.2309363
      ],
      [
        96.0208918,
        17.2318658
      ],
      [
        96.0202959,
        17.2334508
      ],
      [
        96.0199293,
        17.2340415
      ],
      [
        96.0187599,
        17.2357259
      ],
      [
        96.0176162,
        17.237349
      ],
      [
        96.0169302,
        17.2380465
      ],
      [
        96.014118,
        17.2400075
      ],
      [
        96.0133166,
        17.2405639
      ],
      [
        96.0122889,
        17.2412517
      ],
      [
        96.0105645,
        17.2424181
      ],
      [
        96.0096635,
        17.2431758
      ],
      [
        96.009438,
        17.2433756
      ],
      [
        96.0094318,
        17.2433812
      ],
      [
        96.0093365,
        17.2434666
      ],
      [
        96.0081298,
        17.2446232
      ],
      [
        96.0076217,
        17.2451103
      ],
      [
        96.0075125,
        17.2452083
      ],
      [
        96.0065023,
        17.2461847
      ],
      [
        96.0038679,
        17.2487237
      ],
      [
        96.0032116,
        17.2491412
      ],
      [
        96.0028119,
        17.2493616
      ],
      [
        96.0016895,
        17.2498545
      ],
      [
        95.9973753,
        17.2517901
      ],
      [
        95.9937902,
        17.2533707
      ],
      [
        95.9929036,
        17.2537685
      ],
      [
        95.9919755,
        17.2542934
      ],
      [
        95.9912551,
        17.254819
      ],
      [
        95.9904778,
        17.2555528
      ],
      [
        95.9897774,
        17.2564144
      ],
      [
        95.9893337,
        17.2570954
      ],
      [
        95.9888407,
        17.2581128
      ],
      [
        95.9876262,
        17.2608542
      ],
      [
        95.9864813,
        17.2634218
      ],
      [
        95.9857024,
        17.2650894
      ],
      [
        95.984927,
        17.2668136
      ],
      [
        95.9838561,
        17.2691442
      ],
      [
        95.9832558,
        17.2705941
      ],
      [
        95.9829808,
        17.2716155
      ],
      [
        95.9828763,
        17.2722569
      ],
      [
        95.9828216,
        17.2731156
      ],
      [
        95.9822389,
        17.2822718
      ],
      [
        95.9820368,
        17.2849616
      ],
      [
        95.9819208,
        17.286856
      ],
      [
        95.9818192,
        17.2875434
      ],
      [
        95.9816382,
        17.2882403
      ],
      [
        95.9812521,
        17.289105
      ],
      [
        95.9809231,
        17.2896451
      ],
      [
        95.9808358,
        17.2897797
      ],
      [
        95.9778412,
        17.2944394
      ],
      [
        95.9752866,
        17.2983466
      ],
      [
        95.9685865,
        17.308319
      ],
      [
        95.9664401,
        17.3115308
      ],
      [
        95.9663459,
        17.3116332
      ],
      [
        95.9646638,
        17.3141194
      ],
      [
        95.9637342,
        17.3154932
      ],
      [
        95.9630456,
        17.3166164
      ],
      [
        95.9617495,
        17.3184066
      ],
      [
        95.9591257,
        17.3221329
      ],
      [
        95.9580218,
        17.3237568
      ],
      [
        95.9571591,
        17.3248927
      ],
      [
        95.9566495,
        17.3255011
      ],
      [
        95.9561782,
        17.3259533
      ],
      [
        95.9548334,
        17.3271583
      ],
      [
        95.9529448,
        17.3288942
      ],
      [
        95.9515344,
        17.330178
      ],
      [
        95.9492554,
        17.3323067
      ],
      [
        95.948226,
        17.3332577
      ],
      [
        95.9477409,
        17.3338158
      ],
      [
        95.947307,
        17.3344172
      ],
      [
        95.9468025,
        17.3352969
      ],
      [
        95.9464004,
        17.3363243
      ],
      [
        95.9463529,
        17.336474
      ],
      [
        95.9461405,
        17.3373486
      ],
      [
        95.9460353,
        17.3382424
      ],
      [
        95.9460348,
        17.3388617
      ],
      [
        95.9463871,
        17.344779
      ],
      [
        95.9466639,
        17.3499507
      ],
      [
        95.9466273,
        17.3507003
      ],
      [
        95.9465214,
        17.3515583
      ],
      [
        95.9463589,
        17.3522177
      ],
      [
        95.9461033,
        17.3529523
      ],
      [
        95.9444832,
        17.3562153
      ],
      [
        95.942759,
        17.3596246
      ],
      [
        95.938711,
        17.3677552
      ],
      [
        95.936425,
        17.3720985
      ],
      [
        95.935822,
        17.3733691
      ],
      [
        95.9356157,
        17.3737875
      ],
      [
        95.9347555,
        17.3755319
      ],
      [
        95.9339451,
        17.3771753
      ],
      [
        95.9328306,
        17.3793715
      ],
      [
        95.93142,
        17.3822082
      ],
      [
        95.9307799,
        17.3835258
      ],
      [
        95.92902,
        17.3859887
      ],
      [
        95.9284076,
        17.3867529
      ],
      [
        95.9264217,
        17.3905526
      ],
      [
        95.9250107,
        17.3933998
      ],
      [
        95.9240567,
        17.395215
      ],
      [
        95.9196155,
        17.4037585
      ],
      [
        95.9160609,
        17.4107398
      ],
      [
        95.9157364,
        17.4113772
      ],
      [
        95.9126763,
        17.4174538
      ],
      [
        95.906273,
        17.4301626
      ],
      [
        95.9030266,
        17.4365981
      ],
      [
        95.9013742,
        17.4398575
      ],
      [
        95.9012473,
        17.4401307
      ],
      [
        95.9002275,
        17.442325
      ],
      [
        95.9000521,
        17.4427025
      ],
      [
        95.8993974,
        17.4440458
      ],
      [
        95.8989665,
        17.4449675
      ],
      [
        95.896409,
        17.4503579
      ],
      [
        95.8950719,
        17.4533593
      ],
      [
        95.8927595,
        17.4583213
      ],
      [
        95.8909609,
        17.4621378
      ],
      [
        95.8902176,
        17.463598
      ],
      [
        95.8871856,
        17.4700907
      ],
      [
        95.8867923,
        17.4706909
      ],
      [
        95.8863047,
        17.4712861
      ],
      [
        95.8856073,
        17.4718913
      ],
      [
        95.884611,
        17.4724765
      ],
      [
        95.8816326,
        17.473837
      ],
      [
        95.8802903,
        17.4744322
      ],
      [
        95.8797292,
        17.4747873
      ],
      [
        95.8761951,
        17.4774931
      ],
      [
        95.8714287,
        17.4812342
      ],
      [
        95.8661222,
        17.4854603
      ],
      [
        95.8629708,
        17.4879459
      ],
      [
        95.8622786,
        17.4884961
      ],
      [
        95.8616513,
        17.4891598
      ],
      [
        95.8612034,
        17.4896279
      ],
      [
        95.8608219,
        17.4899784
      ],
      [
        95.860207,
        17.4906313
      ],
      [
        95.8589488,
        17.4921478
      ],
      [
        95.8579365,
        17.4933614
      ],
      [
        95.8576278,
        17.4938018
      ],
      [
        95.8572542,
        17.4943936
      ],
      [
        95.8554429,
        17.4975271
      ],
      [
        95.8551443,
        17.4980324
      ],
      [
        95.8538663,
        17.500225
      ],
      [
        95.8521051,
        17.5032467
      ],
      [
        95.8506339,
        17.5057621
      ],
      [
        95.8457722,
        17.5139952
      ],
      [
        95.8428848,
        17.5189312
      ],
      [
        95.840617,
        17.5228178
      ],
      [
        95.8389251,
        17.5257175
      ],
      [
        95.8342739,
        17.5335269
      ],
      [
        95.8309089,
        17.539348
      ],
      [
        95.8303322,
        17.5403457
      ],
      [
        95.8291282,
        17.5423973
      ],
      [
        95.828909,
        17.5427708
      ],
      [
        95.8286509,
        17.5432106
      ],
      [
        95.8284504,
        17.5435522
      ],
      [
        95.828176,
        17.5440198
      ],
      [
        95.8279574,
        17.5443923
      ],
      [
        95.8265779,
        17.546799
      ],
      [
        95.8220233,
        17.5544858
      ],
      [
        95.8213798,
        17.555589
      ],
      [
        95.8212404,
        17.5558253
      ],
      [
        95.8203683,
        17.5573524
      ],
      [
        95.8197712,
        17.5583981
      ],
      [
        95.8182116,
        17.561129
      ],
      [
        95.8161233,
        17.5650241
      ],
      [
        95.8157708,
        17.5657494
      ],
      [
        95.8132886,
        17.5700045
      ],
      [
        95.81162,
        17.572837
      ],
      [
        95.8077707,
        17.5795006
      ],
      [
        95.8029958,
        17.5877202
      ],
      [
        95.8013164,
        17.5905957
      ],
      [
        95.7980848,
        17.5961411
      ],
      [
        95.7946071,
        17.6021241
      ],
      [
        95.7941722,
        17.6029676
      ],
      [
        95.7930842,
        17.6060135
      ],
      [
        95.7905714,
        17.6137397
      ],
      [
        95.790568,
        17.6137502
      ],
      [
        95.7901399,
        17.6150918
      ],
      [
        95.7896737,
        17.6165525
      ],
      [
        95.7889026,
        17.6189685
      ],
      [
        95.788011,
        17.6216591
      ],
      [
        95.787009,
        17.6247315
      ],
      [
        95.7866167,
        17.625941
      ],
      [
        95.7860517,
        17.6276283
      ],
      [
        95.7857649,
        17.6284902
      ],
      [
        95.7853833,
        17.6297284
      ],
      [
        95.7851059,
        17.6310191
      ],
      [
        95.7849146,
        17.6323779
      ],
      [
        95.7848458,
        17.6338184
      ],
      [
        95.784701,
        17.635652
      ],
      [
        95.7844856,
        17.636708
      ],
      [
        95.784132,
        17.6380267
      ],
      [
        95.7836313,
        17.6396968
      ],
      [
        95.7830524,
        17.6412805
      ],
      [
        95.7819909,
        17.6448959
      ],
      [
        95.7812325,
        17.6472845
      ],
      [
        95.7808607,
        17.6484553
      ],
      [
        95.780334,
        17.6500966
      ],
      [
        95.7801641,
        17.6506258
      ],
      [
        95.780058,
        17.6509407
      ],
      [
        95.7788993,
        17.6543789
      ],
      [
        95.7782476,
        17.6563126
      ],
      [
        95.7781502,
        17.6566017
      ],
      [
        95.7780051,
        17.6569719
      ],
      [
        95.7757366,
        17.6627642
      ],
      [
        95.7752852,
        17.6639737
      ],
      [
        95.7751143,
        17.6644314
      ],
      [
        95.7746895,
        17.6660787
      ],
      [
        95.7735021,
        17.6714502
      ],
      [
        95.7726985,
        17.6746513
      ],
      [
        95.7717129,
        17.6787738
      ],
      [
        95.7698028,
        17.6876013
      ],
      [
        95.7685213,
        17.6934811
      ],
      [
        95.7684879,
        17.6936371
      ],
      [
        95.7667864,
        17.7015854
      ],
      [
        95.7649619,
        17.7098588
      ],
      [
        95.7628694,
        17.7190092
      ],
      [
        95.7613554,
        17.7257748
      ],
      [
        95.7594434,
        17.7341889
      ],
      [
        95.7568675,
        17.7453573
      ],
      [
        95.7562673,
        17.7482575
      ],
      [
        95.7558005,
        17.7504402
      ],
      [
        95.7551,
        17.753401
      ],
      [
        95.7535955,
        17.7592884
      ],
      [
        95.7531713,
        17.7619853
      ],
      [
        95.7530293,
        17.7620477
      ],
      [
        95.7528998,
        17.7625292
      ],
      [
        95.7521422,
        17.7651182
      ],
      [
        95.7516066,
        17.7673436
      ],
      [
        95.7504012,
        17.7713126
      ],
      [
        95.750063,
        17.7724554
      ],
      [
        95.7499517,
        17.7728593
      ],
      [
        95.7498267,
        17.7733411
      ],
      [
        95.7489501,
        17.7765533
      ],
      [
        95.7488734,
        17.7768605
      ],
      [
        95.7486779,
        17.7774306
      ],
      [
        95.7484507,
        17.7782755
      ],
      [
        95.7482643,
        17.778969
      ],
      [
        95.747967,
        17.7800753
      ],
      [
        95.7474454,
        17.7820156
      ],
      [
        95.747967,
        17.7800753
      ],
      [
        95.7482643,
        17.778969
      ],
      [
        95.7484507,
        17.7782755
      ],
      [
        95.7486779,
        17.7774306
      ],
      [
        95.7488734,
        17.7768605
      ],
      [
        95.7487368,
        17.7774286
      ],
      [
        95.7484886,
        17.7783256
      ],
      [
        95.7479354,
        17.780439
      ],
      [
        95.7473791,
        17.782519
      ],
      [
        95.746743,
        17.7847692
      ],
      [
        95.746626,
        17.7852187
      ],
      [
        95.7457618,
        17.7889244
      ],
      [
        95.7452502,
        17.7912061
      ],
      [
        95.7444136,
        17.7950388
      ],
      [
        95.7444032,
        17.7950866
      ],
      [
        95.7435752,
        17.7987651
      ],
      [
        95.7431735,
        17.8008834
      ],
      [
        95.7423768,
        17.8044975
      ],
      [
        95.7417559,
        17.8077717
      ],
      [
        95.7417199,
        17.8079583
      ],
      [
        95.7412614,
        17.810421
      ],
      [
        95.7412465,
        17.8105068
      ],
      [
        95.7406926,
        17.8132336
      ],
      [
        95.7396543,
        17.818952
      ],
      [
        95.7389098,
        17.8226499
      ],
      [
        95.7363905,
        17.8353948
      ],
      [
        95.7358387,
        17.8385888
      ],
      [
        95.7354111,
        17.8404381
      ],
      [
        95.7353633,
        17.8406447
      ],
      [
        95.7353622,
        17.8406495
      ],
      [
        95.7351556,
        17.8416801
      ],
      [
        95.7348996,
        17.8428476
      ],
      [
        95.7333658,
        17.8506676
      ],
      [
        95.7333329,
        17.8508792
      ],
      [
        95.7310747,
        17.8624317
      ],
      [
        95.7308201,
        17.8636581
      ],
      [
        95.7303565,
        17.8664436
      ],
      [
        95.7294802,
        17.8705382
      ],
      [
        95.7293165,
        17.8712882
      ],
      [
        95.7283529,
        17.8758711
      ],
      [
        95.7274349,
        17.8806273
      ],
      [
        95.7265054,
        17.8856406
      ],
      [
        95.7257986,
        17.8891831
      ],
      [
        95.7256858,
        17.889862
      ],
      [
        95.7252537,
        17.8922434
      ],
      [
        95.7247713,
        17.8949014
      ],
      [
        95.7247423,
        17.8950655
      ],
      [
        95.723763,
        17.8999115
      ],
      [
        95.7234371,
        17.9015311
      ],
      [
        95.7225888,
        17.9058747
      ],
      [
        95.7195318,
        17.9222958
      ],
      [
        95.7188766,
        17.9258019
      ],
      [
        95.7176326,
        17.9321103
      ],
      [
        95.7164737,
        17.9379849
      ],
      [
        95.7163559,
        17.9386023
      ],
      [
        95.7158962,
        17.9408683
      ],
      [
        95.7158001,
        17.9415058
      ],
      [
        95.7155942,
        17.943716
      ],
      [
        95.7150337,
        17.9462528
      ],
      [
        95.7146591,
        17.9479753
      ],
      [
        95.7146264,
        17.9481609
      ],
      [
        95.7145158,
        17.9486121
      ],
      [
        95.7144322,
        17.9489914
      ],
      [
        95.7135386,
        17.9529369
      ],
      [
        95.7129274,
        17.9554112
      ],
      [
        95.7119737,
        17.9595608
      ],
      [
        95.7117185,
        17.9606711
      ],
      [
        95.7111041,
        17.96343
      ],
      [
        95.7094312,
        17.9720579
      ],
      [
        95.7088784,
        17.9750736
      ],
      [
        95.7084377,
        17.9772312
      ],
      [
        95.708355,
        17.9775548
      ],
      [
        95.7083179,
        17.9777003
      ],
      [
        95.7082901,
        17.9778215
      ],
      [
        95.7079084,
        17.9797771
      ],
      [
        95.7074593,
        17.982078
      ],
      [
        95.7073104,
        17.9828287
      ],
      [
        95.7072275,
        17.9833045
      ],
      [
        95.7071632,
        17.9835764
      ],
      [
        95.7068777,
        17.9846664
      ],
      [
        95.7064483,
        17.9862279
      ],
      [
        95.7061409,
        17.9873984
      ],
      [
        95.7061058,
        17.987535
      ],
      [
        95.7053697,
        17.9906266
      ],
      [
        95.7050008,
        17.9921163
      ],
      [
        95.7039979,
        17.9967423
      ],
      [
        95.7034547,
        17.9992387
      ],
      [
        95.7034277,
        17.9993725
      ],
      [
        95.7033592,
        17.9996598
      ],
      [
        95.7033044,
        17.999925
      ],
      [
        95.7027035,
        18.0027487
      ],
      [
        95.7024465,
        18.0038555
      ],
      [
        95.7018456,
        18.0065885
      ],
      [
        95.7012407,
        18.0095613
      ],
      [
        95.7002891,
        18.0138515
      ],
      [
        95.6989888,
        18.0195955
      ],
      [
        95.6985482,
        18.0213999
      ],
      [
        95.697612,
        18.0253719
      ],
      [
        95.6962195,
        18.0310423
      ],
      [
        95.6944951,
        18.0381343
      ],
      [
        95.6943557,
        18.0387075
      ],
      [
        95.6943246,
        18.0388357
      ],
      [
        95.693782,
        18.0410676
      ],
      [
        95.6933603,
        18.0428024
      ],
      [
        95.6933123,
        18.0429999
      ],
      [
        95.6932841,
        18.0431156
      ],
      [
        95.6899492,
        18.0574952
      ],
      [
        95.6879702,
        18.0650706
      ],
      [
        95.6866329,
        18.0708387
      ],
      [
        95.6847738,
        18.0780753
      ],
      [
        95.6830549,
        18.0845867
      ],
      [
        95.6826608,
        18.0861241
      ],
      [
        95.6825222,
        18.0867064
      ],
      [
        95.6824771,
        18.086869
      ],
      [
        95.6810218,
        18.0930237
      ],
      [
        95.6805919,
        18.0947757
      ],
      [
        95.6804161,
        18.0953617
      ],
      [
        95.6795948,
        18.0989547
      ],
      [
        95.678294,
        18.104645
      ],
      [
        95.6763834,
        18.11249
      ],
      [
        95.676318,
        18.1127521
      ],
      [
        95.6760431,
        18.1138568
      ],
      [
        95.6757231,
        18.1151356
      ],
      [
        95.6753997,
        18.1163028
      ],
      [
        95.6746693,
        18.1193464
      ],
      [
        95.6737299,
        18.1229504
      ],
      [
        95.6727667,
        18.1269155
      ],
      [
        95.6722902,
        18.1288773
      ],
      [
        95.6722213,
        18.1291609
      ],
      [
        95.6720427,
        18.129999
      ],
      [
        95.6718729,
        18.1312841
      ],
      [
        95.6712942,
        18.1354735
      ],
      [
        95.6711731,
        18.1360126
      ],
      [
        95.6710828,
        18.13644
      ],
      [
        95.6697775,
        18.1420481
      ],
      [
        95.6695575,
        18.142711
      ],
      [
        95.6694796,
        18.1429458
      ],
      [
        95.6693889,
        18.1432021
      ],
      [
        95.6692275,
        18.1437041
      ],
      [
        95.6687192,
        18.1451385
      ],
      [
        95.6677732,
        18.1478399
      ],
      [
        95.6670505,
        18.1506904
      ],
      [
        95.6664527,
        18.1530479
      ],
      [
        95.6641711,
        18.1627025
      ],
      [
        95.6630453,
        18.1673881
      ],
      [
        95.6614438,
        18.1741039
      ],
      [
        95.6606163,
        18.1774014
      ],
      [
        95.6583975,
        18.1862579
      ],
      [
        95.656209,
        18.1953921
      ],
      [
        95.6559376,
        18.1964178
      ],
      [
        95.6558938,
        18.1966078
      ],
      [
        95.6542644,
        18.2034784
      ],
      [
        95.653601,
        18.2064106
      ],
      [
        95.6529602,
        18.2093001
      ],
      [
        95.6529115,
        18.2095131
      ],
      [
        95.6523046,
        18.2121655
      ],
      [
        95.6522185,
        18.2125414
      ],
      [
        95.6514863,
        18.2157413
      ],
      [
        95.6509291,
        18.218236
      ],
      [
        95.6508433,
        18.2186202
      ],
      [
        95.6508103,
        18.218768
      ],
      [
        95.6501203,
        18.2217969
      ],
      [
        95.6489784,
        18.2277348
      ],
      [
        95.6488097,
        18.2284809
      ],
      [
        95.6485427,
        18.2296622
      ],
      [
        95.6485095,
        18.229809
      ],
      [
        95.6484682,
        18.2299917
      ],
      [
        95.6482622,
        18.2310802
      ],
      [
        95.6476949,
        18.2340777
      ],
      [
        95.6474937,
        18.2352382
      ],
      [
        95.6474482,
        18.2355004
      ],
      [
        95.6469613,
        18.2379125
      ],
      [
        95.6458918,
        18.2438856
      ],
      [
        95.6439352,
        18.2532457
      ],
      [
        95.64298,
        18.2580071
      ],
      [
        95.6404534,
        18.2697578
      ],
      [
        95.6385765,
        18.2781228
      ],
      [
        95.6369901,
        18.2849586
      ],
      [
        95.6367675,
        18.2858569
      ],
      [
        95.6365405,
        18.2867729
      ],
      [
        95.6332878,
        18.3007626
      ],
      [
        95.6327332,
        18.3027227
      ],
      [
        95.6317487,
        18.3065639
      ],
      [
        95.6302193,
        18.3128218
      ],
      [
        95.6292366,
        18.3168349
      ],
      [
        95.6291702,
        18.3171245
      ],
      [
        95.6273898,
        18.3248845
      ],
      [
        95.6271891,
        18.3257592
      ],
      [
        95.6266374,
        18.3278212
      ],
      [
        95.6265532,
        18.3281357
      ],
      [
        95.6264067,
        18.3286462
      ],
      [
        95.626038,
        18.3300901
      ],
      [
        95.6254557,
        18.3323708
      ],
      [
        95.6247038,
        18.3353156
      ],
      [
        95.6246375,
        18.3355751
      ],
      [
        95.6244868,
        18.3361785
      ],
      [
        95.6242887,
        18.3369122
      ],
      [
        95.6241583,
        18.3372808
      ],
      [
        95.6240129,
        18.3375847
      ],
      [
        95.6238336,
        18.3378926
      ],
      [
        95.6235197,
        18.3383629
      ],
      [
        95.623155,
        18.3388814
      ],
      [
        95.6212524,
        18.3417091
      ],
      [
        95.6198285,
        18.3437576
      ],
      [
        95.6192264,
        18.3446336
      ],
      [
        95.6183858,
        18.3458566
      ],
      [
        95.6141852,
        18.3519666
      ],
      [
        95.6130135,
        18.3536568
      ],
      [
        95.6123306,
        18.3545526
      ],
      [
        95.611492,
        18.3556024
      ],
      [
        95.6097224,
        18.3578178
      ],
      [
        95.6083318,
        18.3593701
      ],
      [
        95.6067666,
        18.3610749
      ],
      [
        95.6061062,
        18.3617619
      ],
      [
        95.6046149,
        18.3634179
      ],
      [
        95.5978421,
        18.3707092
      ],
      [
        95.5945981,
        18.3742668
      ],
      [
        95.5913456,
        18.3780003
      ],
      [
        95.5907006,
        18.3788829
      ],
      [
        95.5905328,
        18.3791741
      ],
      [
        95.5883938,
        18.3834438
      ],
      [
        95.5870457,
        18.3862627
      ],
      [
        95.586241,
        18.3879763
      ],
      [
        95.5855773,
        18.3892533
      ],
      [
        95.5847958,
        18.3903598
      ],
      [
        95.5796918,
        18.3973279
      ],
      [
        95.5796368,
        18.3974011
      ],
      [
        95.5775005,
        18.4002421
      ],
      [
        95.5761421,
        18.4020593
      ],
      [
        95.5754408,
        18.4029974
      ],
      [
        95.5734109,
        18.4057128
      ],
      [
        95.5709515,
        18.4089871
      ],
      [
        95.5671563,
        18.4138282
      ],
      [
        95.5670892,
        18.4139142
      ],
      [
        95.5623714,
        18.4199644
      ],
      [
        95.5614744,
        18.4211278
      ],
      [
        95.5583708,
        18.4251531
      ],
      [
        95.5562976,
        18.4278042
      ],
      [
        95.556117,
        18.4280493
      ],
      [
        95.5556467,
        18.4286877
      ],
      [
        95.5554102,
        18.4290087
      ],
      [
        95.5547586,
        18.4298597
      ],
      [
        95.5533343,
        18.4317199
      ],
      [
        95.5531459,
        18.431966
      ],
      [
        95.5530187,
        18.432132
      ],
      [
        95.5504705,
        18.4354049
      ],
      [
        95.5503617,
        18.4355446
      ],
      [
        95.5464514,
        18.4407412
      ],
      [
        95.5419961,
        18.4465894
      ],
      [
        95.5419154,
        18.4466953
      ],
      [
        95.5401477,
        18.4490156
      ],
      [
        95.5385549,
        18.4510461
      ],
      [
        95.538267,
        18.4513146
      ],
      [
        95.53798,
        18.4515821
      ],
      [
        95.5377978,
        18.451752
      ],
      [
        95.5375604,
        18.4519734
      ],
      [
        95.5373898,
        18.4521685
      ],
      [
        95.5371414,
        18.4525215
      ],
      [
        95.53652,
        18.4536705
      ],
      [
        95.5362139,
        18.4541924
      ],
      [
        95.5359323,
        18.4545737
      ],
      [
        95.5342683,
        18.4567662
      ],
      [
        95.5327753,
        18.4586732
      ],
      [
        95.530852,
        18.4611574
      ],
      [
        95.5263692,
        18.4669475
      ],
      [
        95.5229346,
        18.4713647
      ],
      [
        95.5191651,
        18.4761748
      ],
      [
        95.5171599,
        18.478722
      ],
      [
        95.5170971,
        18.4787978
      ],
      [
        95.5146855,
        18.4818688
      ],
      [
        95.5144973,
        18.4821246
      ],
      [
        95.5141515,
        18.4825606
      ],
      [
        95.5138854,
        18.4829478
      ],
      [
        95.5136118,
        18.4834457
      ],
      [
        95.5114009,
        18.4884602
      ],
      [
        95.5102325,
        18.4908401
      ],
      [
        95.5090719,
        18.4929914
      ],
      [
        95.5090436,
        18.4930377
      ],
      [
        95.5090036,
        18.4931026
      ],
      [
        95.508533,
        18.4938666
      ],
      [
        95.5071097,
        18.4961773
      ],
      [
        95.5070042,
        18.4963372
      ],
      [
        95.5064692,
        18.4972162
      ],
      [
        95.5026473,
        18.5034559
      ],
      [
        95.4984266,
        18.5105152
      ],
      [
        95.4934703,
        18.5185655
      ],
      [
        95.4909551,
        18.5228031
      ],
      [
        95.4888043,
        18.5264411
      ],
      [
        95.4871643,
        18.5290287
      ],
      [
        95.4856252,
        18.5316575
      ],
      [
        95.4856368,
        18.5316643
      ],
      [
        95.4855764,
        18.5317611
      ],
      [
        95.4844958,
        18.5334753
      ],
      [
        95.484228,
        18.5339317
      ],
      [
        95.4840577,
        18.5341897
      ],
      [
        95.4839442,
        18.5343416
      ],
      [
        95.4839238,
        18.5343692
      ],
      [
        95.4838535,
        18.5344629
      ],
      [
        95.4837515,
        18.5345986
      ],
      [
        95.482985,
        18.5356135
      ],
      [
        95.4813436,
        18.5377334
      ],
      [
        95.4809676,
        18.5382135
      ],
      [
        95.4806008,
        18.5386386
      ],
      [
        95.4802398,
        18.539025
      ],
      [
        95.4799429,
        18.539312
      ],
      [
        95.4796372,
        18.5395853
      ],
      [
        95.4794428,
        18.539746
      ],
      [
        95.4793737,
        18.5398032
      ],
      [
        95.4787034,
        18.5403485
      ],
      [
        95.4778904,
        18.5409554
      ],
      [
        95.4771782,
        18.5415072
      ],
      [
        95.4747203,
        18.5433501
      ],
      [
        95.4739525,
        18.5439004
      ],
      [
        95.4738735,
        18.5439624
      ],
      [
        95.4731518,
        18.5445288
      ],
      [
        95.4726813,
        18.5449089
      ],
      [
        95.4725528,
        18.5450128
      ],
      [
        95.47232,
        18.5451754
      ],
      [
        95.4720526,
        18.54537
      ],
      [
        95.4718055,
        18.5455573
      ],
      [
        95.4714144,
        18.5458949
      ],
      [
        95.4710871,
        18.5462091
      ],
      [
        95.4710379,
        18.5462599
      ],
      [
        95.4708998,
        18.5464023
      ],
      [
        95.4705531,
        18.5468046
      ],
      [
        95.4703584,
        18.5470405
      ],
      [
        95.4701299,
        18.5473645
      ],
      [
        95.4698706,
        18.547747
      ],
      [
        95.4696462,
        18.5481158
      ],
      [
        95.4694445,
        18.5484944
      ],
      [
        95.4692639,
        18.548877
      ],
      [
        95.4687486,
        18.5503058
      ],
      [
        95.4687388,
        18.5503331
      ],
      [
        95.4686828,
        18.5504884
      ],
      [
        95.467543,
        18.5536489
      ],
      [
        95.4657988,
        18.558527
      ],
      [
        95.4634215,
        18.5648499
      ],
      [
        95.4632045,
        18.565359
      ],
      [
        95.4630502,
        18.5656819
      ],
      [
        95.4628523,
        18.5661014
      ],
      [
        95.4624884,
        18.5667085
      ],
      [
        95.4623662,
        18.5669128
      ],
      [
        95.4623446,
        18.5669487
      ],
      [
        95.4623028,
        18.5670187
      ],
      [
        95.4622127,
        18.5671692
      ],
      [
        95.4619787,
        18.5675602
      ],
      [
        95.4619162,
        18.5676646
      ],
      [
        95.4617894,
        18.5678766
      ],
      [
        95.4616121,
        18.5681728
      ],
      [
        95.4610892,
        18.5690255
      ],
      [
        95.4609185,
        18.5693038
      ],
      [
        95.4600704,
        18.5706865
      ],
      [
        95.4598432,
        18.5710571
      ],
      [
        95.4598211,
        18.5710937
      ],
      [
        95.4596723,
        18.5713405
      ],
      [
        95.4596241,
        18.5714204
      ],
      [
        95.4590195,
        18.5724232
      ],
      [
        95.4586486,
        18.5730384
      ],
      [
        95.4574274,
        18.5750638
      ],
      [
        95.4572118,
        18.5754214
      ],
      [
        95.4571536,
        18.5755206
      ],
      [
        95.4570785,
        18.5756485
      ],
      [
        95.4569688,
        18.5758353
      ],
      [
        95.4555546,
        18.5780888
      ],
      [
        95.4536183,
        18.5813199
      ],
      [
        95.4525172,
        18.583137
      ],
      [
        95.4516214,
        18.5846056
      ],
      [
        95.441016,
        18.6019919
      ],
      [
        95.428651,
        18.6224534
      ],
      [
        95.4251143,
        18.6282516
      ],
      [
        95.4243538,
        18.6295378
      ],
      [
        95.42434,
        18.6295612
      ],
      [
        95.4226245,
        18.6323528
      ],
      [
        95.4226069,
        18.6323819
      ],
      [
        95.4217409,
        18.6338112
      ],
      [
        95.4205155,
        18.6358287
      ],
      [
        95.4204949,
        18.6358627
      ],
      [
        95.4188377,
        18.63856
      ],
      [
        95.41882,
        18.638589
      ],
      [
        95.418559,
        18.6390476
      ],
      [
        95.4184812,
        18.6391822
      ],
      [
        95.4183888,
        18.639327
      ],
      [
        95.4180497,
        18.6398425
      ],
      [
        95.4175277,
        18.6407074
      ],
      [
        95.4169072,
        18.6417144
      ],
      [
        95.4164523,
        18.6424737
      ],
      [
        95.4162066,
        18.6428491
      ],
      [
        95.4160645,
        18.6430862
      ],
      [
        95.4158086,
        18.6435728
      ],
      [
        95.4155641,
        18.6440856
      ],
      [
        95.4154219,
        18.6444358
      ],
      [
        95.4152798,
        18.6448381
      ],
      [
        95.4152203,
        18.645014
      ],
      [
        95.4150224,
        18.6455991
      ],
      [
        95.4149328,
        18.6458621
      ],
      [
        95.4142376,
        18.647904
      ],
      [
        95.4136299,
        18.6496946
      ],
      [
        95.4132018,
        18.6509561
      ],
      [
        95.4131749,
        18.6510352
      ],
      [
        95.4131603,
        18.651078
      ],
      [
        95.4128839,
        18.6518717
      ],
      [
        95.4124996,
        18.652975
      ],
      [
        95.412458,
        18.6530944
      ],
      [
        95.4124416,
        18.6531425
      ],
      [
        95.4121866,
        18.6538785
      ],
      [
        95.4117442,
        18.6552181
      ],
      [
        95.4110314,
        18.657352
      ],
      [
        95.4104298,
        18.6591394
      ],
      [
        95.4101194,
        18.66004
      ],
      [
        95.4098109,
        18.6608761
      ],
      [
        95.4083858,
        18.6651458
      ],
      [
        95.4083675,
        18.6651989
      ],
      [
        95.407913,
        18.6665207
      ],
      [
        95.4072093,
        18.6685672
      ],
      [
        95.404769,
        18.6756519
      ],
      [
        95.40471,
        18.6758247
      ],
      [
        95.4045276,
        18.6763532
      ],
      [
        95.4041414,
        18.677517
      ],
      [
        95.403546,
        18.6793058
      ],
      [
        95.4031061,
        18.6805001
      ],
      [
        95.4024838,
        18.6819941
      ],
      [
        95.4017703,
        18.6834983
      ],
      [
        95.4009871,
        18.6849059
      ],
      [
        95.4003702,
        18.6858664
      ],
      [
        95.3996031,
        18.6869183
      ],
      [
        95.3987722,
        18.6880506
      ],
      [
        95.3985871,
        18.6883028
      ],
      [
        95.3957997,
        18.6915171
      ],
      [
        95.394169,
        18.6934328
      ],
      [
        95.3913044,
        18.6967255
      ],
      [
        95.3893732,
        18.6990273
      ],
      [
        95.387085,
        18.7016663
      ],
      [
        95.3869566,
        18.7018144
      ],
      [
        95.3834616,
        18.7058717
      ],
      [
        95.3819327,
        18.7076449
      ],
      [
        95.3800874,
        18.7097993
      ],
      [
        95.3776626,
        18.7126141
      ],
      [
        95.3757046,
        18.7149055
      ],
      [
        95.3736363,
        18.7172945
      ],
      [
        95.3719173,
        18.71928
      ],
      [
        95.3711867,
        18.7201385
      ],
      [
        95.3696214,
        18.7219778
      ],
      [
        95.3677277,
        18.7241777
      ],
      [
        95.3653245,
        18.7269415
      ],
      [
        95.3649972,
        18.7273327
      ],
      [
        95.3647398,
        18.7276781
      ],
      [
        95.3644662,
        18.7280897
      ],
      [
        95.364214,
        18.7284961
      ],
      [
        95.3633614,
        18.7299421
      ],
      [
        95.3628729,
        18.730701
      ],
      [
        95.3622124,
        18.7317771
      ],
      [
        95.360674,
        18.734342
      ],
      [
        95.3592949,
        18.7365483
      ],
      [
        95.3590435,
        18.7369621
      ],
      [
        95.3579765,
        18.7387186
      ],
      [
        95.3568387,
        18.7405915
      ],
      [
        95.3555237,
        18.7427205
      ],
      [
        95.3534584,
        18.746119
      ],
      [
        95.3530582,
        18.7467965
      ],
      [
        95.3516559,
        18.7490754
      ],
      [
        95.3508137,
        18.7504419
      ],
      [
        95.3489094,
        18.753571
      ],
      [
        95.3473859,
        18.7560346
      ],
      [
        95.3452294,
        18.7595699
      ],
      [
        95.3437434,
        18.7620131
      ],
      [
        95.3434377,
        18.7624855
      ],
      [
        95.3430621,
        18.7630544
      ],
      [
        95.3426115,
        18.7636639
      ],
      [
        95.3420429,
        18.7644258
      ],
      [
        95.3414314,
        18.7651673
      ],
      [
        95.3410237,
        18.7656499
      ],
      [
        95.3401922,
        18.7665489
      ],
      [
        95.3393446,
        18.7673667
      ],
      [
        95.3391079,
        18.7675929
      ],
      [
        95.33825,
        18.768413
      ],
      [
        95.3378479,
        18.7688295
      ],
      [
        95.3371291,
        18.7695304
      ],
      [
        95.3371176,
        18.7695416
      ],
      [
        95.3343557,
        18.7722223
      ],
      [
        95.3326605,
        18.7738273
      ],
      [
        95.3314267,
        18.7750412
      ],
      [
        95.3309181,
        18.7755164
      ],
      [
        95.3307969,
        18.7756297
      ],
      [
        95.3305952,
        18.7758182
      ],
      [
        95.3291093,
        18.7772861
      ],
      [
        95.3273283,
        18.7789976
      ],
      [
        95.3254561,
        18.7808362
      ],
      [
        95.3253541,
        18.7809351
      ],
      [
        95.3247909,
        18.7814812
      ],
      [
        95.3232406,
        18.782954
      ],
      [
        95.3208511,
        18.7852333
      ],
      [
        95.320376,
        18.7856864
      ],
      [
        95.318916,
        18.7871048
      ],
      [
        95.3175061,
        18.7884745
      ],
      [
        95.3171467,
        18.7888191
      ],
      [
        95.3150145,
        18.7908637
      ],
      [
        95.3150009,
        18.7908767
      ],
      [
        95.31322,
        18.7925893
      ],
      [
        95.3119539,
        18.7938069
      ],
      [
        95.3088908,
        18.7967803
      ],
      [
        95.3066807,
        18.7988954
      ],
      [
        95.3034245,
        18.8020896
      ],
      [
        95.300576,
        18.8048623
      ],
      [
        95.2978776,
        18.807513
      ],
      [
        95.2973788,
        18.8080005
      ],
      [
        95.2959733,
        18.8093766
      ],
      [
        95.295174,
        18.8101738
      ],
      [
        95.2941855,
        18.8111296
      ],
      [
        95.2939241,
        18.8113824
      ],
      [
        95.292976,
        18.8122833
      ],
      [
        95.2915745,
        18.8135453
      ],
      [
        95.2914252,
        18.8136596
      ],
      [
        95.2910091,
        18.81399
      ],
      [
        95.2906786,
        18.8142714
      ],
      [
        95.2894823,
        18.8151448
      ],
      [
        95.2887957,
        18.8155866
      ],
      [
        95.2876853,
        18.8162822
      ],
      [
        95.2867572,
        18.8168001
      ],
      [
        95.2859418,
        18.8172064
      ],
      [
        95.2850621,
        18.8176024
      ],
      [
        95.2837585,
        18.8181457
      ],
      [
        95.2826052,
        18.8185824
      ],
      [
        95.2818488,
        18.8188617
      ],
      [
        95.2808993,
        18.819146
      ],
      [
        95.2793382,
        18.819603
      ],
      [
        95.2785282,
        18.819796
      ],
      [
        95.2776645,
        18.8199737
      ],
      [
        95.2766453,
        18.8201666
      ],
      [
        95.2765051,
        18.8201829
      ],
      [
        95.275728,
        18.8202733
      ],
      [
        95.2752031,
        18.8203205
      ],
      [
        95.2735763,
        18.8204709
      ],
      [
        95.2730668,
        18.820504
      ],
      [
        95.2725141,
        18.8205096
      ],
      [
        95.2711466,
        18.820536
      ],
      [
        95.2704474,
        18.8205336
      ],
      [
        95.2696164,
        18.8205317
      ],
      [
        95.2693632,
        18.8205369
      ],
      [
        95.2681517,
        18.8205393
      ],
      [
        95.2680337,
        18.8205419
      ],
      [
        95.2664056,
        18.8205524
      ],
      [
        95.2661573,
        18.8205544
      ],
      [
        95.2639257,
        18.8205534
      ],
      [
        95.2577468,
        18.8206
      ],
      [
        95.2558221,
        18.820581
      ],
      [
        95.2532523,
        18.8206076
      ],
      [
        95.2505127,
        18.820634
      ],
      [
        95.2501343,
        18.8206338
      ],
      [
        95.2491795,
        18.8207556
      ],
      [
        95.2483641,
        18.8209181
      ],
      [
        95.247414,
        18.8211767
      ],
      [
        95.246207,
        18.8214718
      ],
      [
        95.2426864,
        18.8223435
      ],
      [
        95.2390807,
        18.8232156
      ],
      [
        95.2367404,
        18.8237732
      ],
      [
        95.2345109,
        18.8242901
      ],
      [
        95.2332199,
        18.8246164
      ],
      [
        95.2324497,
        18.824807
      ],
      [
        95.232062,
        18.8248778
      ],
      [
        95.2316548,
        18.8249474
      ],
      [
        95.2312658,
        18.8249765
      ],
      [
        95.2310194,
        18.8249868
      ],
      [
        95.2307593,
        18.8249959
      ],
      [
        95.2305518,
        18.8249887
      ],
      [
        95.230094,
        18.8249554
      ],
      [
        95.2295084,
        18.8248905
      ],
      [
        95.2290182,
        18.8248055
      ],
      [
        95.2286566,
        18.8247226
      ],
      [
        95.2283959,
        18.8246443
      ],
      [
        95.2280715,
        18.8245472
      ],
      [
        95.2269432,
        18.8241766
      ],
      [
        95.2255985,
        18.8237184
      ],
      [
        95.2243326,
        18.8232959
      ],
      [
        95.220843,
        18.8221204
      ],
      [
        95.2204402,
        18.8219877
      ],
      [
        95.2199482,
        18.8217708
      ],
      [
        95.2195735,
        18.8215826
      ],
      [
        95.219031,
        18.821343
      ],
      [
        95.2186249,
        18.8211706
      ],
      [
        95.216673,
        18.8205116
      ]
    ]
  }
}